NORAD_CAT_ID,OBJECT_NAME,OBJECT_TYPE,EPOCH,MEAN_MOTION,ECCENTRICITY,INCLINATION,RA_OF_ASC_NODE,ARG_OF_PERICENTER,MEAN_ANOMALY,BSTAR,MEAN_MOTION_DOT,MEAN_MOTION_DDOT,TLE_LINE0,TLE_LINE1,TLE_LINE2,SEMIMAJOR_AXIS,PERIOD,APOGEE,PERIGEE,DECAYED
54086.0,STARLINK-5211,PAYLOAD,2023-04-08 03:52:10,15.08842933,0.0001393,53.2198,67.0524,89.5767,270.5385,-5.2137e-05,-1.118e-05,0.0,0 STARLINK-5211,1 54086U 22136AM  23098.16122906 -.00001118  00000-0 -52137-4 0  9991,2 54086  53.2198  67.0524 0001393  89.5767 270.5385 15.08842933 26657,6917.871,95.437,540.7,538.773,0.0
54086.0,STARLINK-5211,PAYLOAD,2023-04-08 07:02:56,15.08843662,0.0001314,53.219,66.4583,94.9197,265.1945,-2.9227e-05,-7.53e-06,0.0,0 STARLINK-5211,1 54086U 22136AM  23098.29370737 -.00000753  00000-0 -29227-4 0  9990,2 54086  53.2190  66.4583 0001314  94.9197 265.1945 15.08843662 26200,6917.869,95.437,540.643,538.825,0.0
54086.0,STARLINK-5211,PAYLOAD,2023-04-09 03:42:57,15.0882881,0.0001215,53.2185,62.592,105.1621,254.9505,0.0002566,3.797e-05,0.0,0 STARLINK-5211,1 54086U 22136AM  23099.15483116  .00003797  00000-0  25660-3 0  9997,2 54086  53.2185  62.5920 0001215 105.1621 254.9505 15.08828810 26805,6917.915,95.438,540.62,538.939,0.0
54086.0,STARLINK-5211,PAYLOAD,2023-04-09 06:53:43,15.08844748,0.0001318,53.2191,61.9971,99.5925,260.5216,0.00010401,1.368e-05,0.0,0 STARLINK-5211,1 54086U 22136AM  23099.28730378  .00001368  00000-0  10401-3 0  9995,2 54086  53.2191  61.9971 0001318  99.5925 260.5216 15.08844748 26820,6917.866,95.437,540.643,538.819,0.0
54086.0,STARLINK-5211,PAYLOAD,2023-04-10 06:44:30,15.08841464,0.0001367,53.2196,57.5362,96.8089,263.3059,7.5608e-05,9.16e-06,0.0,0 STARLINK-5211,1 54086U 22136AM  23100.28090895  .00000916  00000-0  75608-4 0  9990,2 54086  53.2196  57.5362 0001367  96.8089 263.3059 15.08841464 26979,6917.876,95.437,540.687,538.795,0.0
54086.0,STARLINK-5211,PAYLOAD,2023-04-11 06:35:16,15.08851248,0.0001336,53.2199,53.075,100.7862,259.3281,7.2654e-05,8.69e-06,0.0,0 STARLINK-5211,1 54086U 22136AM  23101.27450131  .00000869  00000-0  72654-4 0  9998,2 54086  53.2199  53.0750 0001336 100.7862 259.3281 15.08851248 26652,6917.846,95.437,540.635,538.787,0.0
54086.0,STARLINK-5211,PAYLOAD,2023-04-12 04:50:41,15.08843711,0.0001297,53.2204,48.913,95.5228,264.5912,6.786e-05,7.92e-06,0.0,0 STARLINK-5211,1 54086U 22136AM  23102.20186725  .00000792  00000-0  67860-4 0  9995,2 54086  53.2204  48.9130 0001297  95.5228 264.5912 15.08843711 27260,6917.869,95.437,540.631,538.837,0.0
54086.0,STARLINK-5211,PAYLOAD,2023-04-12 06:26:04,15.08844106,0.0001272,53.2207,48.616,94.4942,265.6195,6.1058e-05,6.84e-06,0.0,0 STARLINK-5211,1 54086U 22136AM  23102.26810728  .00000684  00000-0  61058-4 0  9991,2 54086  53.2207  48.6160 0001272  94.4942 265.6195 15.08844106 26800,6917.868,95.437,540.613,538.853,0.0
54086.0,STARLINK-5211,PAYLOAD,2023-04-13 06:16:51,15.08847388,0.0001185,53.2199,44.1561,93.9724,266.1403,2.0017e-05,3.1e-07,0.0,0 STARLINK-5211,1 54086U 22136AM  23103.26170541  .00000031  00000-0  20017-4 0  9990,2 54086  53.2199  44.1561 0001185  93.9724 266.1403 15.08847388 26950,6917.858,95.437,540.543,538.903,0.0
54086.0,STARLINK-5211,PAYLOAD,2023-04-14 04:32:16,15.08837769,0.0001198,53.2198,39.9972,109.3824,250.7298,4.5387e-06,-2.16e-06,0.0,0 STARLINK-5211,1 54086U 22136AM  23104.18907572 -.00000216  00000-0  45387-5 0  9998,2 54086  53.2198  39.9972 0001198 109.3824 250.7298 15.08837769 27093,6917.887,95.438,540.581,538.923,0.0
54086.0,STARLINK-5211,PAYLOAD,2023-04-15 05:58:25,15.08852813,0.0001292,53.2188,35.2351,85.2118,274.9022,8.3557e-05,1.043e-05,0.0,0 STARLINK-5211,1 54086U 22136AM  23105.24890702  .00001043  00000-0  83557-4 0  9990,2 54086  53.2188  35.2351 0001292  85.2118 274.9022 15.08852813 27725,6917.841,95.437,540.6,538.812,0.0
54086.0,STARLINK-5211,PAYLOAD,2023-04-16 04:13:49,15.08848123,0.000118,53.2177,31.0715,100.4474,259.6651,0.00014143,1.964e-05,0.0,0 STARLINK-5211,1 54086U 22136AM  23106.17626919  .00001964  00000-0  14143-3 0  9996,2 54086  53.2177  31.0715 0001180 100.4474 259.6651 15.08848123 27864,6917.856,95.437,540.537,538.904,0.0
54086.0,STARLINK-5211,PAYLOAD,2023-04-17 04:04:36,15.08850418,0.0001279,53.2181,26.6113,108.9694,251.1437,8.7205e-05,1.101e-05,0.0,0 STARLINK-5211,1 54086U 22136AM  23107.16986855  .00001101  00000-0  87205-4 0  9997,2 54086  53.2181  26.6113 0001279 108.9694 251.1437 15.08850418 28014,6917.849,95.437,540.598,538.829,0.0
54086.0,STARLINK-5211,PAYLOAD,2023-04-18 03:55:24,15.08844973,0.0001329,53.2191,22.1505,101.0724,259.0418,8.2673e-05,1.028e-05,0.0,0 STARLINK-5211,1 54086U 22136AM  23108.16347379  .00001028  00000-0  82673-4 0  9992,2 54086  53.2191  22.1505 0001329 101.0724 259.0418 15.08844973 27693,6917.865,95.437,540.65,538.811,0.0
54086.0,STARLINK-5211,PAYLOAD,2023-04-19 03:46:11,15.08845101,0.0001239,53.219,17.6917,90.3465,269.7669,0.00011399,1.527e-05,0.0,0 STARLINK-5211,1 54086U 22136AM  23109.15707809  .00001527  00000-0  11399-3 0  9990,2 54086  53.2190  17.6917 0001239  90.3465 269.7669 15.08845101 28310,6917.865,95.437,540.587,538.873,0.0
54086.0,STARLINK-5211,PAYLOAD,2023-04-20 02:01:34,15.08861099,0.0001121,53.2185,13.5304,86.399,273.713,0.00045401,6.949e-05,0.0,0 STARLINK-5211,1 54086U 22136AM  23110.08443195  .00006949  00000-0  45401-3 0  9993,2 54086  53.2185  13.5304 0001121  86.3990 273.7130 15.08861099 27981,6917.816,95.436,540.456,538.905,0.0
54086.0,STARLINK-5211,PAYLOAD,2023-04-21 00:17:00,15.08826819,0.0001191,53.218,9.3668,90.7993,269.3135,-0.00020815,-3.598e-05,0.0,0 STARLINK-5211,1 54086U 22136AM  23111.01180848 -.00003598  00000-0 -20815-3 0  9991,2 54086  53.2180   9.3668 0001191  90.7993 269.3135 15.08826819 28596,6917.921,95.438,540.61,538.962,0.0
54086.0,STARLINK-5211,PAYLOAD,2023-04-21 09:49:18,15.08838107,9.55e-05,53.2177,7.5834,95.3683,264.7418,4.1667e-05,3.75e-06,0.0,0 STARLINK-5211,1 54086U 22136AM  23111.40924699  .00000375  00000-0  41667-4 0  9991,2 54086  53.2177   7.5834 0000955  95.3683 264.7418 15.08838107 28182,6917.886,95.438,540.412,539.091,0.0
54086.0,STARLINK-5211,PAYLOAD,2023-04-21 19:21:37,15.08843818,8.1e-05,53.2167,5.8,127.2752,232.8314,8.499e-05,1.065e-05,0.0,0 STARLINK-5211,1 54086U 22136AM  23111.80668035  .00001065  00000-0  84990-4 0  9997,2 54086  53.2167   5.8000 0000810 127.2752 232.8314 15.08843818 28714,6917.869,95.437,540.294,539.173,0.0
54086.0,STARLINK-5211,PAYLOAD,2023-04-22 00:07:46,15.08854552,9.63e-05,53.2168,4.9093,133.78,226.3272,0.00043632,6.666e-05,0.0,0 STARLINK-5211,1 54086U 22136AM  23112.00540009  .00006666  00000-0  43632-3 0  9999,2 54086  53.2168   4.9093 0000963 133.7800 226.3272 15.08854552 28743,6917.836,95.437,540.367,539.035,0.0
54086.0,STARLINK-5211,PAYLOAD,2023-04-22 19:12:24,15.08848817,4.79e-05,53.2154,1.3383,98.2341,261.8706,0.00018826,2.711e-05,0.0,0 STARLINK-5211,1 54086U 22136AM  23112.80028119  .00002711  00000-0  18826-3 0  9994,2 54086  53.2154   1.3383 0000479  98.2341 261.8706 15.08848817 28864,6917.853,95.437,540.05,539.387,0.0
54086.0,STARLINK-5211,PAYLOAD,2023-04-23 01:33:56,15.08853781,4.65e-05,53.2151,0.1491,75.6077,284.4966,0.00033615,5.068e-05,0.0,0 STARLINK-5211,1 54086U 22136AM  23113.06523921  .00005068  00000-0  33615-3 0  9995,2 54086  53.2151   0.1491 0000465  75.6077 284.4966 15.08853781 28436,6917.838,95.437,540.025,539.382,0.0
54086.0,STARLINK-5211,PAYLOAD,2023-04-23 15:52:25,15.08839564,0.0001011,53.2162,357.4748,78.0185,282.092,0.00028568,4.262e-05,0.0,0 STARLINK-5211,1 54086U 22136AM  23113.66140492  .00004262  00000-0  28568-3 0  9995,2 54086  53.2162 357.4748 0001011  78.0185 282.0920 15.08839564 28994,6917.882,95.438,540.446,539.047,0.0
54086.0,STARLINK-5211,PAYLOAD,2023-04-23 19:03:11,15.08835908,0.0001117,53.2167,356.8817,70.4207,289.6906,0.00013339,1.835e-05,0.0,0 STARLINK-5211,1 54086U 22136AM  23113.79388578  .00001835  00000-0  13339-3 0  9991,2 54086  53.2167 356.8817 0001117  70.4207 289.6906 15.08835908 28543,6917.893,95.438,540.531,538.985,0.0
54086.0,STARLINK-5211,PAYLOAD,2023-04-24 01:24:44,15.08849939,0.00014,53.2159,355.6926,66.3248,293.7891,0.00035116,5.307e-05,0.0,0 STARLINK-5211,1 54086U 22136AM  23114.05884378  .00005307  00000-0  35116-3 0  9995,2 54086  53.2159 355.6926 0001400  66.3248 293.7891 15.08849939 28588,6917.85,95.437,540.684,538.747,0.0
54086.0,STARLINK-5211,PAYLOAD,2023-04-24 23:40:06,15.08891053,0.0001161,53.2171,351.5275,85.4751,274.6374,0.0011656,0.00018337,0.0,0 STARLINK-5211,1 54086U 22136AM  23114.98618167  .00018337  00000-0  11656-2 0  9997,2 54086  53.2171 351.5275 0001161  85.4751 274.6374 15.08891053 29195,6917.724,95.434,540.392,538.786,0.0
54086.0,STARLINK-5211,PAYLOAD,2023-04-26 02:41:42,15.08782567,9.59e-05,53.2178,346.4693,138.3065,221.8,-0.00032735,-5.485e-05,0.0,0 STARLINK-5211,1 54086U 22136AM  23116.11230027 -.00005485  00000-0 -32735-3 0  9993,2 54086  53.2178 346.4693 0000959 138.3065 221.8000 15.08782567 28894,6918.056,95.441,540.584,539.258,0.0
54086.0,STARLINK-5211,PAYLOAD,2023-04-26 21:46:20,15.08826055,3.31e-05,53.2167,342.904,110.577,249.5258,0.0012356,0.00019424,0.0,0 STARLINK-5211,1 54086U 22136AM  23116.90717874  .00019424  00000-0  12356-2 0  9992,2 54086  53.2167 342.9040 0000331 110.5770 249.5258 15.08826055 29016,6917.923,95.438,540.017,539.559,0.0
54086.0,STARLINK-5211,PAYLOAD,2023-04-28 00:47:52,15.08862555,6.67e-05,53.2175,337.8476,139.8218,220.2823,0.00060605,9.377e-05,0.0,0 STARLINK-5211,1 54086U 22136AM  23118.03324894  .00009377  00000-0  60605-3 0  9991,2 54086  53.2175 337.8476 0000667 139.8218 220.2823 15.08862555 29653,6917.811,95.436,540.138,539.215,0.0
54086.0,STARLINK-5211,PAYLOAD,2023-04-28 07:09:25,15.08852287,7.4e-05,53.217,336.6596,108.5276,251.5797,6.4099e-05,7.33e-06,0.0,0 STARLINK-5211,1 54086U 22136AM  23118.29821355  .00000733  00000-0  64099-4 0  9992,2 54086  53.2170 336.6596 0000740 108.5276 251.5797 15.08852287 29699,6917.843,95.437,540.22,539.196,0.0
